{"type": "FeatureCollection", "features": [ {"type": "Feature", "properties": {"norad_id": 37216, "name": "COSMO-SKYMED 4", "group": "resource", "lat": 64.9629374526691, "lon": 141.41819001407796, "alt_km": 615.1685440286556, "timestamp": "2025-12-03T04:52:29.298186+00:00", "meta": {"OBJECT_NAME": "COSMO-SKYMED 4", "OBJECT_ID": "2010-060A", "EPOCH": "2025-12-02T22:05:47.315328", "MEAN_MOTION": 14.82166845, "ECCENTRICITY": 0.0001483, "INCLINATION": 97.8815, "RA_OF_ASC_NODE": 158.3917, "ARG_OF_PERICENTER": 84.4768, "MEAN_ANOMALY": 275.6614, "EPHEMERIS_TYPE": 0, "CLASSIFICATION_TYPE": "U", "NORAD_CAT_ID": 37216, "ELEMENT_SET_NO": 999, "REV_AT_EPOCH": 81549, "BSTAR": 0.00010541, "MEAN_MOTION_DOT": 7.87e-06, "MEAN_MOTION_DDOT": 0}, "tle": {"line1": "1 37216U 10060A   25336.92068652  .00000787  00000+0  10541-3 0  9998", "line2": "2 37216  97.8815 158.3917 0001483  84.4768 275.6614 14.82166845815499"}}, "geometry": {"type": "Point", "coordinates": [141.41819001407796, 64.9629374526691]}}, {"type": "Feature", "properties": {"norad_id": 37387, "name": "RESOURCESAT-2", "group": "resource", "lat": -52.39531227512027, "lon": 52.38469957463317, "alt_km": 829.3570601741148, "timestamp": "2025-12-03T04:52:29.298196+00:00", "meta": {"OBJECT_NAME": "RESOURCESAT-2", "OBJECT_ID": "2011-015A", "EPOCH": "2025-12-02T18:59:23.513568", "MEAN_MOTION": 14.21590584, "ECCENTRICITY": 0.0006801, "INCLINATION": 98.7891, "RA_OF_ASC_NODE": 40.3872, "ARG_OF_PERICENTER": 68.0698, "MEAN_ANOMALY": 292.1202, "EPHEMERIS_TYPE": 0, "CLASSIFICATION_TYPE": "U", "NORAD_CAT_ID": 37387, "ELEMENT_SET_NO": 999, "REV_AT_EPOCH": 75827, "BSTAR": 0.00011716, "MEAN_MOTION_DOT": 2.12e-06, "MEAN_MOTION_DDOT": 0}, "tle": {"line1": "1 37387U 11015A   25336.79124437  .00000212  00000+0  11716-3 0  9995", "line2": "2 37387  98.7891  40.3872 0006801  68.0698 292.1202 14.21590584758274"}}, "geometry": {"type": "Point", "coordinates": [52.38469957463317, -52.39531227512027]}}, {"type": "Feature", "properties": {"norad_id": 37781, "name": "HAIYANG-2A", "group": "resource", "lat": 20.009471712591644, "lon": -25.150460360374893, "alt_km": 967.6693322996762, "timestamp": "2025-12-03T04:52:29.298206+00:00", "meta": {"OBJECT_NAME": "HAIYANG-2A", "OBJECT_ID": "2011-043A", "EPOCH": "2025-12-02T20:04:08.656320", "MEAN_MOTION": 13.78834124, "ECCENTRICITY": 0.000164, "INCLINATION": 99.3377, "RA_OF_ASC_NODE": 337.9233, "ARG_OF_PERICENTER": 97.8047, "MEAN_ANOMALY": 262.329, "EPHEMERIS_TYPE": 0, "CLASSIFICATION_TYPE": "U", "NORAD_CAT_ID": 37781, "ELEMENT_SET_NO": 999, "REV_AT_EPOCH": 71962, "BSTAR": 6.4178e-05, "MEAN_MOTION_DOT": 2.1e-07, "MEAN_MOTION_DDOT": 0}, "tle": {"line1": "1 37781U 11043A   25336.83621130  .00000021  00000+0  64178-4 0  9990", "line2": "2 37781  99.3377 337.9233 0001640  97.8047 262.3290 13.78834124719622"}}, "geometry": {"type": "Point", "coordinates": [-25.150460360374893, 20.009471712591644]}}, {"type": "Feature", "properties": {"norad_id": 37791, "name": "RASAT", "group": "resource", "lat": -35.48600925364262, "lon": 72.40464680392462, "alt_km": 683.9337149974235, "timestamp": "2025-12-03T04:52:29.298217+00:00", "meta": {"OBJECT_NAME": "RASAT", "OBJECT_ID": "2011-044D", "EPOCH": "2025-12-02T21:24:47.528928", "MEAN_MOTION": 14.67886313, "ECCENTRICITY": 0.0021965, "INCLINATION": 98.0657, "RA_OF_ASC_NODE": 66.2961, "ARG_OF_PERICENTER": 94.6582, "MEAN_ANOMALY": 27.8114, "EPHEMERIS_TYPE": 0, "CLASSIFICATION_TYPE": "U", "NORAD_CAT_ID": 37791, "ELEMENT_SET_NO": 999, "REV_AT_EPOCH": 76438, "BSTAR": 0.00016272, "MEAN_MOTION_DOT": 8.84e-06, "MEAN_MOTION_DDOT": 0}, "tle": {"line1": "1 37791U 11044D   25336.89221677  .00000884  00000+0  16272-3 0  9998", "line2": "2 37791  98.0657  66.2961 0021965  94.6582  27.8114 14.67886313764389"}}, "geometry": {"type": "Point", "coordinates": [72.40464680392462, -35.48600925364262]}}, {"type": "Feature", "properties": {"norad_id": 37841, "name": "SRMSAT", "group": "resource", "lat": 18.740041914800756, "lon": -83.42901657921168, "alt_km": 850.3518911773408, "timestamp": "2025-12-03T04:52:29.298227+00:00", "meta": {"OBJECT_NAME": "SRMSAT", "OBJECT_ID": "2011-058D", "EPOCH": "2025-12-02T13:11:57.275808", "MEAN_MOTION": 14.11505758, "ECCENTRICITY": 0.00117424, "INCLINATION": 19.9698, "RA_OF_ASC_NODE": 169.6251, "ARG_OF_PERICENTER": 200.5325, "MEAN_ANOMALY": 183.2256, "EPHEMERIS_TYPE": 0, "CLASSIFICATION_TYPE": "U", "NORAD_CAT_ID": 37841, "ELEMENT_SET_NO": 999, "REV_AT_EPOCH": 73000, "BSTAR": 0.00011467524, "MEAN_MOTION_DOT": 4.76e-06, "MEAN_MOTION_DDOT": 0}, "tle": {"line1": "1 37841U 11058D   25336.54996847  .00000476  00000+0  11468-3 0  9998", "line2": "2 37841  19.9698 169.6251 0011742 200.5325 183.2256 14.11505758730003"}}, "geometry": {"type": "Point", "coordinates": [-83.42901657921168, 18.740041914800756]}}, {"type": "Feature", "properties": {"norad_id": 38012, "name": "PLEIADES 1A", "group": "resource", "lat": 76.94786593414334, "lon": 11.749032896770158, "alt_km": 689.6183811104065, "timestamp": "2025-12-03T04:52:29.298237+00:00", "meta": {"OBJECT_NAME": "PLEIADES 1A", "OBJECT_ID": "2011-076F", "EPOCH": "2025-12-02T20:51:13.024800", "MEAN_MOTION": 14.58545438, "ECCENTRICITY": 0.0001415, "INCLINATION": 98.1834, "RA_OF_ASC_NODE": 49.7893, "ARG_OF_PERICENTER": 81.5303, "MEAN_ANOMALY": 44.4403, "EPHEMERIS_TYPE": 0, "CLASSIFICATION_TYPE": "U", "NORAD_CAT_ID": 38012, "ELEMENT_SET_NO": 999, "REV_AT_EPOCH": 74337, "BSTAR": 0.00013345, "MEAN_MOTION_DOT": 5.75e-06, "MEAN_MOTION_DDOT": 0}, "tle": {"line1": "1 38012U 11076F   25336.86890075  .00000575  00000+0  13345-3 0  9996", "line2": "2 38012  98.1834  49.7893 0001415  81.5303  44.4403 14.58545438743370"}}, "geometry": {"type": "Point", "coordinates": [11.749032896770158, 76.94786593414334]}}, {"type": "Feature", "properties": {"norad_id": 38038, "name": "ZIYUAN 1-02C (ZY 1-02C)", "group": "resource", "lat": -27.77967382235132, "lon": 47.875237116262525, "alt_km": 775.6010666249203, "timestamp": "2025-12-03T04:52:29.298247+00:00", "meta": {"OBJECT_NAME": "ZIYUAN 1-02C (ZY 1-02C)", "OBJECT_ID": "2011-079A", "EPOCH": "2025-12-02T21:12:34.927776", "MEAN_MOTION": 14.37993795, "ECCENTRICITY": 0.0006749, "INCLINATION": 98.4347, "RA_OF_ASC_NODE": 43.0786, "ARG_OF_PERICENTER": 165.8032, "MEAN_ANOMALY": 313.7778, "EPHEMERIS_TYPE": 0, "CLASSIFICATION_TYPE": "U", "NORAD_CAT_ID": 38038, "ELEMENT_SET_NO": 999, "REV_AT_EPOCH": 73099, "BSTAR": 0.00024214, "MEAN_MOTION_DOT": 6.89e-06, "MEAN_MOTION_DDOT": 0}, "tle": {"line1": "1 38038U 11079A   25336.88373759  .00000689  00000+0  24214-3 0  9997", "line2": "2 38038  98.4347  43.0786 0006749 165.8032 313.7778 14.37993795730999"}}, "geometry": {"type": "Point", "coordinates": [47.875237116262525, -27.77967382235132]}}, {"type": "Feature", "properties": {"norad_id": 38046, "name": "ZIYUAN 3-1 (ZY 3-1)", "group": "resource", "lat": 3.3728485028996067, "lon": 42.984327128365756, "alt_km": 369.682715728959, "timestamp": "2025-12-03T04:52:29.298257+00:00", "meta": {"OBJECT_NAME": "ZIYUAN 3-1 (ZY 3-1)", "OBJECT_ID": "2012-001A", "EPOCH": "2025-12-02T21:11:44.977344", "MEAN_MOTION": 15.66680491, "ECCENTRICITY": 0.0002162, "INCLINATION": 97.1782, "RA_OF_ASC_NODE": 43.0832, "ARG_OF_PERICENTER": 32.8232, "MEAN_ANOMALY": 327.3163, "EPHEMERIS_TYPE": 0, "CLASSIFICATION_TYPE": "U", "NORAD_CAT_ID": 38046, "ELEMENT_SET_NO": 999, "REV_AT_EPOCH": 77342, "BSTAR": 0.00072395, "MEAN_MOTION_DOT": 0.00076344, "MEAN_MOTION_DDOT": 0}, "tle": {"line1": "1 38046U 12001A   25336.88315946  .00076344  00000+0  72395-3 0  9990", "line2": "2 38046  97.1782  43.0832 0002162  32.8232 327.3163 15.66680491773422"}}, "geometry": {"type": "Point", "coordinates": [42.984327128365756, 3.3728485028996067]}}, {"type": "Feature", "properties": {"norad_id": 38338, "name": "ARIRANG-3 (KOMPSAT-3)", "group": "resource", "lat": -48.51544848693811, "lon": 102.1829635718669, "alt_km": 697.8198518144172, "timestamp": "2025-12-03T04:52:29.298267+00:00", "meta": {"OBJECT_NAME": "ARIRANG-3 (KOMPSAT-3)", "OBJECT_ID": "2012-025B", "EPOCH": "2025-12-02T21:15:28.514016", "MEAN_MOTION": 14.61690715, "ECCENTRICITY": 0.0006059, "INCLINATION": 98.3307, "RA_OF_ASC_NODE": 291.4018, "ARG_OF_PERICENTER": 9.6721, "MEAN_ANOMALY": 350.4595, "EPHEMERIS_TYPE": 0, "CLASSIFICATION_TYPE": "U", "NORAD_CAT_ID": 38338, "ELEMENT_SET_NO": 999, "REV_AT_EPOCH": 72266, "BSTAR": 0.00018073, "MEAN_MOTION_DOT": 8.52e-06, "MEAN_MOTION_DDOT": 0}, "tle": {"line1": "1 38338U 12025B   25336.88574669  .00000852  00000+0  18073-3 0  9993", "line2": "2 38338  98.3307 291.4018 0006059   9.6721 350.4595 14.61690715722661"}}, "geometry": {"type": "Point", "coordinates": [102.1829635718669, -48.51544848693811]}}, {"type": "Feature", "properties": {"norad_id": 38709, "name": "EXACTVIEW-1 (ADS-1B)", "group": "resource", "lat": 47.28923104175791, "lon": 75.54856761149544, "alt_km": 797.414638599369, "timestamp": "2025-12-03T04:52:29.298277+00:00", "meta": {"OBJECT_NAME": "EXACTVIEW-1 (ADS-1B)", "OBJECT_ID": "2012-039C", "EPOCH": "2025-12-02T20:13:26.914368", "MEAN_MOTION": 14.24901073, "ECCENTRICITY": 0.001117, "INCLINATION": 98.9635, "RA_OF_ASC_NODE": 85.0253, "ARG_OF_PERICENTER": 22.4652, "MEAN_ANOMALY": 337.7013, "EPHEMERIS_TYPE": 0, "CLASSIFICATION_TYPE": "U", "NORAD_CAT_ID": 38709, "ELEMENT_SET_NO": 999, "REV_AT_EPOCH": 69474, "BSTAR": 0.00010258, "MEAN_MOTION_DOT": 1.93e-06, "MEAN_MOTION_DDOT": 0}, "tle": {"line1": "1 38709U 12039C   25336.84267262  .00000193  00000+0  10258-3 0  9999", "line2": "2 38709  98.9635  85.0253 0011170  22.4652 337.7013 14.24901073694748"}}, "geometry": {"type": "Point", "coordinates": [75.54856761149544, 47.28923104175791]}}]}